{
    "links": {
        "self": "http://www.neowsapp.com/rest/v1/neo/3653919?api_key=iIulBulltgU6a56xZRHN4H3l9WmuAYTsLGpBGhQ2"
    },
    "id": "3653919",
    "neo_reference_id": "3653919",
    "name": "(2013 WY44)",
    "designation": "2013 WY44",
    "nasa_jpl_url": "http://ssd.jpl.nasa.gov/sbdb.cgi?sstr=3653919",
    "absolute_magnitude_h": 25.9,
    "estimated_diameter": {
        "kilometers": {
            "estimated_diameter_min": 0.0175612318,
            "estimated_diameter_max": 0.0392681082
        },
        "meters": {
            "estimated_diameter_min": 17.561231848,
            "estimated_diameter_max": 39.2681081809
        },
        "miles": {
            "estimated_diameter_min": 0.0109120402,
            "estimated_diameter_max": 0.0244000636
        },
        "feet": {
            "estimated_diameter_min": 57.6155918963,
            "estimated_diameter_max": 128.8323800441
        }
    },
    "is_potentially_hazardous_asteroid": false,
    "close_approach_data": [
        {
            "close_approach_date": "2011-11-04",
            "close_approach_date_full": "2011-Nov-04 15:38",
            "epoch_date_close_approach": 1320421080000,
            "relative_velocity": {
                "kilometers_per_second": "12.2159742254",
                "kilometers_per_hour": "43977.5072112794",
                "miles_per_hour": "27325.9127446975"
            },
            "miss_distance": {
                "astronomical": "0.2929981416",
                "lunar": "113.9762770824",
                "kilometers": "43831897.897318392",
                "miles": "27235878.4089301296"
            },
            "orbiting_body": "Earth"
        },
        {
            "close_approach_date": "2013-11-30",
            "close_approach_date_full": "2013-Nov-30 23:11",
            "epoch_date_close_approach": 1385853060000,
            "relative_velocity": {
                "kilometers_per_second": "6.1527291569",
                "kilometers_per_hour": "22149.8249648245",
                "miles_per_hour": "13763.03985106"
            },
            "miss_distance": {
                "astronomical": "0.0564858971",
                "lunar": "21.9730139719",
                "kilometers": "8450169.891199177",
                "miles": "5250692.0925635626"
            },
            "orbiting_body": "Earth"
        },
        {
            "close_approach_date": "2015-12-30",
            "close_approach_date_full": "2015-Dec-30 12:25",
            "epoch_date_close_approach": 1451478300000,
            "relative_velocity": {
                "kilometers_per_second": "10.8968898806",
                "kilometers_per_hour": "39228.8035700599",
                "miles_per_hour": "24375.252973852"
            },
            "miss_distance": {
                "astronomical": "0.2623108313",
                "lunar": "102.0389133757",
                "kilometers": "39241141.640409331",
                "miles": "24383314.7460215278"
            },
            "orbiting_body": "Earth"
        }
    ],
    "orbital_data": {
        "orbit_id": "5",
        "orbit_determination_date": "2017-04-06 08:43:29",
        "first_observation_date": "2013-11-28",
        "last_observation_date": "2013-12-06",
        "data_arc_in_days": 8,
        "observations_used": 30,
        "orbit_uncertainty": "8",
        "minimum_orbit_intersection": ".0553893",
        "jupiter_tisserand_invariant": "4.260",
        "epoch_osculation": "2456625.5",
        "eccentricity": ".3539163939985629",
        "semi_major_axis": "1.61028096151987",
        "inclination": "8.633542639222039",
        "ascending_node_longitude": "248.526360307016",
        "orbital_period": "746.364396491014",
        "perihelion_distance": "1.040376130294219",
        "perihelion_argument": "185.9639852372785",
        "aphelion_distance": "2.180185792745521",
        "perihelion_time": "2456632.213639777331",
        "mean_anomaly": "356.7617556099914",
        "mean_motion": ".4823381202165025",
        "equinox": "J2000",
        "orbit_class": {
            "orbit_class_type": "AMO",
            "orbit_class_description": "Near-Earth asteroid orbits similar to that of 1221 Amor",
            "orbit_class_range": "1.017 AU < q (perihelion) < 1.3 AU"
        }
    },
    "is_sentry_object": false
}